{
  "type": "FeatureCollection",
  "features": [
    {
      "type": "Feature",
      "properties": {
        "norad_id": 41330,
        "name": "COSMOS 2514 (751)",
        "group": "gnss",
        "lat": -4.913544917938037,
        "lon": -43.28963937615861,
        "alt_km": 19151.826388852565,
        "timestamp": "2025-12-24T05:51:19.851796+00:00",
        "meta_object_name": "COSMOS 2514 (751)",
        "meta_object_id": "2016-008A",
        "meta_epoch": "2025-12-23T07:30:02.526336",
        "meta_mean_motion": 2.13102643,
        "meta_eccentricity": 0.00116567,
        "meta_inclination": 65.1277,
        "meta_ra_of_asc_node": 319.0421,
        "meta_arg_of_pericenter": 220.1052,
        "meta_mean_anomaly": 139.8073,
        "meta_ephemeris_type": 0,
        "meta_classification_type": "U",
        "meta_norad_cat_id": 41330,
        "meta_element_set_no": 999,
        "meta_rev_at_epoch": 7687,
        "meta_bstar": 0,
        "meta_mean_motion_dot": -3.6e-07,
        "meta_mean_motion_ddot": 0,
        "tle_line1": "1 41330U 16008A   25357.31252924 -.00000036  00000+0  00000+0 0  9994",
        "tle_line2": "2 41330  65.1277 319.0421 0011656 220.1052 139.8073  2.13102643 76873"
      },
      "geometry": {
        "type": "Point",
        "coordinates": [
          -43.28963937615861,
          -4.913544917938037
        ]
      }
    },
    {
      "type": "Feature",
      "properties": {
        "norad_id": 41384,
        "name": "IRNSS-1F",
        "group": "gnss",
        "lat": 4.543336215751185,
        "lon": -146.8051697585199,
        "alt_km": 35750.61095510482,
        "timestamp": "2025-12-24T05:51:19.851807+00:00",
        "meta_object_name": "IRNSS-1F",
        "meta_object_id": "2016-015A",
        "meta_epoch": "2025-12-23T21:50:46.864032",
        "meta_mean_motion": 1.0027804,
        "meta_eccentricity": 0.00226618,
        "meta_inclination": 4.9091,
        "meta_ra_of_asc_node": 101.0216,
        "meta_arg_of_pericenter": 182.1158,
        "meta_mean_anomaly": 169.7535,
        "meta_ephemeris_type": 0,
        "meta_classification_type": "U",
        "meta_norad_cat_id": 41384,
        "meta_element_set_no": 999,
        "meta_rev_at_epoch": 3590,
        "meta_bstar": 0,
        "meta_mean_motion_dot": 1.77e-06,
        "meta_mean_motion_ddot": 0,
        "tle_line1": "1 41384U 16015A   25357.91026463  .00000177  00000+0  00000+0 0  9999",
        "tle_line2": "2 41384   4.9091 101.0216 0022661 182.1158 169.7535  1.00278040 35904"
      },
      "geometry": {
        "type": "Point",
        "coordinates": [
          -146.8051697585199,
          4.543336215751185
        ]
      }
    },
    {
      "type": "Feature",
      "properties": {
        "norad_id": 41434,
        "name": "BEIDOU-2 IGSO-6 (C13)",
        "group": "gnss",
        "lat": -44.9377330596134,
        "lon": -104.96581824697186,
        "alt_km": 35528.896658306636,
        "timestamp": "2025-12-24T05:51:19.851819+00:00",
        "meta_object_name": "BEIDOU-2 IGSO-6 (C13)",
        "meta_object_id": "2016-021A",
        "meta_epoch": "2025-12-18T14:33:38.837664",
        "meta_mean_motion": 1.00292299,
        "meta_eccentricity": 0.00610054,
        "meta_inclination": 59.9732,
        "meta_ra_of_asc_node": 39.8392,
        "meta_arg_of_pericenter": 230.2031,
        "meta_mean_anomaly": 129.1398,
        "meta_ephemeris_type": 0,
        "meta_classification_type": "U",
        "meta_norad_cat_id": 41434,
        "meta_element_set_no": 999,
        "meta_rev_at_epoch": 3566,
        "meta_bstar": 0,
        "meta_mean_motion_dot": -1.41e-06,
        "meta_mean_motion_ddot": 0,
        "tle_line1": "1 41434U 16021A   25352.60669951 -.00000141  00000+0  00000+0 0  9990",
        "tle_line2": "2 41434  59.9732  39.8392 0061005 230.2031 129.1398  1.00292299 35667"
      },
      "geometry": {
        "type": "Point",
        "coordinates": [
          -104.96581824697186,
          -44.9377330596134
        ]
      }
    },
    {
      "type": "Feature",
      "properties": {
        "norad_id": 41469,
        "name": "IRNSS-1G",
        "group": "gnss",
        "lat": -2.2986001054471688,
        "lon": -49.70073221723006,
        "alt_km": 35791.162266306375,
        "timestamp": "2025-12-24T05:51:19.851834+00:00",
        "meta_object_name": "IRNSS-1G",
        "meta_object_id": "2016-027A",
        "meta_epoch": "2025-12-23T18:53:03.734592",
        "meta_mean_motion": 1.00274617,
        "meta_eccentricity": 0.00026577,
        "meta_inclination": 4.7616,
        "meta_ra_of_asc_node": 101.8149,
        "meta_arg_of_pericenter": 327.6838,
        "meta_mean_anomaly": 75.8876,
        "meta_ephemeris_type": 0,
        "meta_classification_type": "U",
        "meta_norad_cat_id": 41469,
        "meta_element_set_no": 999,
        "meta_rev_at_epoch": 3542,
        "meta_bstar": 0,
        "meta_mean_motion_dot": -3.15e-06,
        "meta_mean_motion_ddot": 0,
        "tle_line1": "1 41469U 16027A   25357.78684878 -.00000315  00000+0  00000+0 0  9996",
        "tle_line2": "2 41469   4.7616 101.8149 0002657 327.6838  75.8876  1.00274617 35424"
      },
      "geometry": {
        "type": "Point",
        "coordinates": [
          -49.70073221723006,
          -2.2986001054471688
        ]
      }
    },
    {
      "type": "Feature",
      "properties": {
        "norad_id": 41549,
        "name": "GSAT0211 (GALILEO 14)",
        "group": "gnss",
        "lat": 21.72674789632648,
        "lon": 30.40556242935932,
        "alt_km": 23228.307462592486,
        "timestamp": "2025-12-24T05:51:19.851845+00:00",
        "meta_object_name": "GSAT0211 (GALILEO 14)",
        "meta_object_id": "2016-030A",
        "meta_epoch": "2025-12-22T05:38:05.943264",
        "meta_mean_motion": 1.70473275,
        "meta_eccentricity": 0.00040882,
        "meta_inclination": 55.1491,
        "meta_ra_of_asc_node": 226.562,
        "meta_arg_of_pericenter": 17.521,
        "meta_mean_anomaly": 342.5988,
        "meta_ephemeris_type": 0,
        "meta_classification_type": "U",
        "meta_norad_cat_id": 41549,
        "meta_element_set_no": 999,
        "meta_rev_at_epoch": 5965,
        "meta_bstar": 0,
        "meta_mean_motion_dot": 7.3e-07,
        "meta_mean_motion_ddot": 0,
        "tle_line1": "1 41549U 16030A   25356.23479101  .00000073  00000+0  00000+0 0  9999",
        "tle_line2": "2 41549  55.1491 226.5620 0004088  17.5210 342.5988  1.70473275 59659"
      },
      "geometry": {
        "type": "Point",
        "coordinates": [
          30.40556242935932,
          21.72674789632648
        ]
      }
    },
    {
      "type": "Feature",
      "properties": {
        "norad_id": 41550,
        "name": "GSAT0210 (GALILEO 13)",
        "group": "gnss",
        "lat": -4.003935424520656,
        "lon": -136.27455620874127,
        "alt_km": 23224.66451838562,
        "timestamp": "2025-12-24T05:51:19.851857+00:00",
        "meta_object_name": "GSAT0210 (GALILEO 13)",
        "meta_object_id": "2016-030B",
        "meta_epoch": "2025-12-23T01:53:26.064096",
        "meta_mean_motion": 1.704734,
        "meta_eccentricity": 5.527e-05,
        "meta_inclination": 55.1484,
        "meta_ra_of_asc_node": 226.5368,
        "meta_arg_of_pericenter": 180.205,
        "meta_mean_anomaly": 179.8969,
        "meta_ephemeris_type": 0,
        "meta_classification_type": "U",
        "meta_norad_cat_id": 41550,
        "meta_element_set_no": 999,
        "meta_rev_at_epoch": 5966,
        "meta_bstar": 0,
        "meta_mean_motion_dot": 7.3e-07,
        "meta_mean_motion_ddot": 0,
        "tle_line1": "1 41550U 16030B   25357.07877389  .00000073  00000+0  00000+0 0  9994",
        "tle_line2": "2 41550  55.1484 226.5368 0000552 180.2050 179.8969  1.70473400 59665"
      },
      "geometry": {
        "type": "Point",
        "coordinates": [
          -136.27455620874127,
          -4.003935424520656
        ]
      }
    },
    {
      "type": "Feature",
      "properties": {
        "norad_id": 41586,
        "name": "BEIDOU-2 G7 (C03)",
        "group": "gnss",
        "lat": -1.2462545323813803,
        "lon": -68.76669686843525,
        "alt_km": 35803.32210902186,
        "timestamp": "2025-12-24T05:51:19.851870+00:00",
        "meta_object_name": "BEIDOU-2 G7 (C03)",
        "meta_object_id": "2016-037A",
        "meta_epoch": "2025-12-23T22:13:07.225248",
        "meta_mean_motion": 1.00269519,
        "meta_eccentricity": 0.00052072,
        "meta_inclination": 1.7825,
        "meta_ra_of_asc_node": 67.8843,
        "meta_arg_of_pericenter": 1.2738,
        "meta_mean_anomaly": 107.2702,
        "meta_ephemeris_type": 0,
        "meta_classification_type": "U",
        "meta_norad_cat_id": 41586,
        "meta_element_set_no": 999,
        "meta_rev_at_epoch": 513,
        "meta_bstar": 0,
        "meta_mean_motion_dot": -3.33e-06,
        "meta_mean_motion_ddot": 0,
        "tle_line1": "1 41586U 16037A   25357.92577807 -.00000333  00000+0  00000+0 0  9996",
        "tle_line2": "2 41586   1.7825  67.8843 0005207   1.2738 107.2702  1.00269519  5131"
      },
      "geometry": {
        "type": "Point",
        "coordinates": [
          -68.76669686843525,
          -1.2462545323813803
        ]
      }
    }
  ]
}